[{"OBJECT_NAME":"IRIDIUM 146","OBJECT_ID":"2018-030F","EPOCH":"2026-03-09T19:45:19.387584","MEAN_MOTION":14.34218061,"ECCENTRICITY":0.00021492,"INCLINATION":86.4005,"RA_OF_ASC_NODE":331.9763,"ARG_OF_PERICENTER":89.3889,"MEAN_ANOMALY":270.7553,"EPHEMERIS_TYPE":0,"CLASSIFICATION_TYPE":"U","NORAD_CAT_ID":43254,"ELEMENT_SET_NO":999,"REV_AT_EPOCH":41589,"BSTAR":7.1120516e-5,"MEAN_MOTION_DOT":2.19e-6,"MEAN_MOTION_DDOT":0},{"OBJECT_NAME":"CZ-4B DEB","OBJECT_ID":"1999-057NK","EPOCH":"2026-03-09T22:49:14.824992","MEAN_MOTION":14.4812051,"ECCENTRICITY":0.00750923,"INCLINATION":98.5966,"RA_OF_ASC_NODE":119.6355,"ARG_OF_PERICENTER":148.6265,"MEAN_ANOMALY":211.944,"EPHEMERIS_TYPE":0,"CLASSIFICATION_TYPE":"U","NORAD_CAT_ID":29040,"ELEMENT_SET_NO":999,"REV_AT_EPOCH":20544,"BSTAR":0.00028350617,"MEAN_MOTION_DOT":1.045e-5,"MEAN_MOTION_DDOT":0}]
